{"spkid": "50157045", "covariance": {"data": [["6.057778843865884E-16", "-6.370638435731078E-16", "1.64197980624615E-13", "-9.296646135596743E-15", "1.716142702770973E-13", "7.488683808588508E-14", "-4.790678518415101E-23"], ["-6.370638435731078E-16", "6.982882227390917E-16", "-1.700799974767174E-13", "9.249625490262154E-15", "-1.612160094439161E-13", "-7.809494812367627E-14", "1.549725182295037E-22"], ["1.64197980624615E-13", "-1.700799974767174E-13", "8.32594061001178E-11", "-1.821179226995636E-11", "8.314767726182155E-11", "5.714871742870088E-11", "-7.818191280823523E-21"], ["-9.296646135596743E-15", "9.249625490262154E-15", "-1.821179226995636E-11", "8.342198098193356E-12", "-2.181771581865101E-11", "-1.711115572858933E-11", "-8.665638987496756E-22"], ["1.716142702770973E-13", "-1.612160094439161E-13", "8.314767726182155E-11", "-2.181771581865101E-11", "1.057325975123133E-10", "5.506656846264192E-11", "5.761701921245485E-20"], ["7.488683808588508E-14", "-7.809494812367627E-14", "5.714871742870088E-11", "-1.711115572858933E-11", "5.506656846264192E-11", "7.779348606298872E-11", "-9.711840004080453E-21"], ["-4.790678518415101E-23", "1.549725182295037E-22", "-7.818191280823523E-21", "-8.665638987496756E-22", "5.761701921245485E-20", "-9.711840004080453E-21", "3.919946506130669E-28"]], "elements": [{"label": "e", "units": null, "title": "eccentricity", "value": ".1262871690516394", "name": "e", "sigma": 2.46125554217068e-08}, {"sigma": 2.64251437600459e-08, "name": "q", "title": "perihelion distance", "value": ".9101958744310943", "units": "au", "label": "q"}, {"title": "time of perihelion passage", "value": "2458715.137133771966", "units": "TDB", "sigma": 9.12465923199972e-06, "name": "tp", "label": "tp"}, {"units": "deg", "value": "100.8680490815455", "title": "longitude of the ascending node", "sigma": 2.88828636014391e-06, "name": "om", "label": "node"}, {"units": "deg", "value": "254.6333369862096", "title": "argument of perihelion", "sigma": 1.02826357278819e-05, "name": "w", "label": "peri"}, {"label": "i", "units": "deg", "title": "inclination", "value": "20.02713724664107", "name": "i", "sigma": 8.82006156798175e-06}], "labels": ["e", "q", "tp", "node", "peri", "i", "A2"], "epoch": "2458622.5"}, "elements": [{"label": "e", "sigma": "2.4527E-8", "name": "e", "units": null, "value": ".1263176583948686", "title": "eccentricity"}, {"name": "a", "sigma": "1.2006E-8", "units": "au", "value": "1.042187117573113", "title": "semi-major axis", "label": "a"}, {"sigma": "2.83E-8", "name": "q", "units": "au", "value": ".9105404812719797", "title": "perihelion distance", "label": "q"}, {"sigma": "8.8202E-6", "name": "i", "units": "deg", "title": "inclination; angle with respect to x-y ecliptic plane", "value": "20.02564562696427", "label": "i"}, {"label": "node", "value": "100.822819533178", "title": "longitude of the ascending node", "units": "deg", "name": "om", "sigma": "2.8676E-6"}, {"units": "deg", "value": "254.5066092917944", "title": "argument of perihelion", "name": "w", "sigma": "1.0445E-5", "label": "peri"}, {"label": "M", "units": "deg", "value": "142.9370725989893", "title": "mean anomaly", "sigma": "3.1292E-5", "name": "ma"}, {"units": "TDB", "title": "time of perihelion passage", "value": "2461046.202332720551", "name": "tp", "sigma": "3.1232E-5", "label": "tp"}, {"sigma": "6.7154E-6", "name": "per", "title": "sidereal orbital period", "value": "388.6126895605288", "units": "d", "label": "period"}, {"label": "n", "title": "mean motion", "value": ".9263722201328883", "units": "deg/d", "name": "n", "sigma": "1.6008E-8"}, {"name": "ad", "sigma": "1.3523E-8", "units": "au", "title": "aphelion distance", "value": "1.173833753874246", "label": "Q"}], "epoch": "2461200.5"}